[
    {
        "Altitude(m)": 612513.9356682838,
        "Argument of Periapsis(deg)": 0.0,
        "Eccentricity": 0.0,
        "Inclination(deg)": 60.0,
        "Latitude(deg)": -28.13597639101108,
        "Longitude(deg)": -7.086828254145433,
        "Mean Anomaly(deg)": -147.27269999999996,
        "RAAN(deg)": 255.0,
        "Satellite Name": "Test1 1135",
        "Satellite Number": 1135,
        "Semi-Major Axis(m)": 6980739.136638005,
        "Time(s)": 0
    },
    {
        "Altitude(m)": 612708.3034812552,
        "Argument of Periapsis(deg)": 0.00010418945913296404,
        "Eccentricity": 0.0,
        "Inclination(deg)": 60.0,
        "Latitude(deg)": -28.64771487939822,
        "Longitude(deg)": -6.729596607328178,
        "Mean Anomaly(deg)": -146.65259385453817,
        "RAAN(deg)": 254.99957995086027,
        "Satellite Name": "Test1 1135",
        "Satellite Number": 1135,
        "Semi-Major Axis(m)": 6980739.136638005,
        "Time(s)": 10
    },
    {
        "Altitude(m)": 612903.4979578538,
        "Argument of Periapsis(deg)": 0.0002083789182659281,
        "Eccentricity": 0.0,
        "Inclination(deg)": 60.0,
        "Latitude(deg)": -29.158213208766625,
        "Longitude(deg)": -6.36849772300464,
        "Mean Anomaly(deg)": -146.03248770907635,
        "RAAN(deg)": 254.9991599017205,
        "Satellite Name": "Test1 1135",
        "Satellite Number": 1135,
        "Semi-Major Axis(m)": 6980739.136638005,
        "Time(s)": 20
    },
    {
        "Altitude(m)": 613099.4478880614,
        "Argument of Periapsis(deg)": 0.00031256837739889213,
        "Eccentricity": 0.0,
        "Inclination(deg)": 60.0,
        "Latitude(deg)": -29.667434309997844,
        "Longitude(deg)": -6.003420130399052,
        "Mean Anomaly(deg)": -145.41238156361453,
        "RAAN(deg)": 254.9987398525808,
        "Satellite Name": "Test1 1135",
        "Satellite Number": 1135,
        "Semi-Major Axis(m)": 6980739.136638005,
        "Time(s)": 30
    },
    {
        "Altitude(m)": 613296.0815799972,
        "Argument of Periapsis(deg)": 0.0004167578365318562,
        "Eccentricity": 0.0,
        "Inclination(deg)": 60.0,
        "Latitude(deg)": -30.175340123204734,
        "Longitude(deg)": -5.634249371309115,
        "Mean Anomaly(deg)": -144.79227541815268,
        "RAAN(deg)": 254.99831980344106,
        "Satellite Name": "Test1 1135",
        "Satellite Number": 1135,
        "Semi-Major Axis(m)": 6980739.136638005,
        "Time(s)": 40
    },
    {
        "Altitude(m)": 613493.3268916456,
        "Argument of Periapsis(deg)": 0.0005209472956648203,
        "Eccentricity": 0.0,
        "Inclination(deg)": 60.0,
        "Latitude(deg)": -30.68189155922418,
        "Longitude(deg)": -5.260868942418955,
        "Mean Anomaly(deg)": -144.1721692726908,
        "RAAN(deg)": 254.9978997543013,
        "Satellite Name": "Test1 1135",
        "Satellite Number": 1135,
        "Semi-Major Axis(m)": 6980739.136638005,
        "Time(s)": 50
    },
    {
        "Altitude(m)": 613691.1112627649,
        "Argument of Periapsis(deg)": 0.0006251367547977843,
        "Eccentricity": 0.0,
        "Inclination(deg)": 60.0,
        "Latitude(deg)": -31.1870484597684,
        "Longitude(deg)": -4.883159724624058,
        "Mean Anomaly(deg)": -143.55206312722896,
        "RAAN(deg)": 254.99747970516154,
        "Satellite Name": "Test1 1135",
        "Satellite Number": 1135,
        "Semi-Major Axis(m)": 6980739.136638005,
        "Time(s)": 60
    },
    {
        "Altitude(m)": 613889.3617469437,
        "Argument of Periapsis(deg)": 0.0007293262139307483,
        "Eccentricity": 0.0,
        "Inclination(deg)": 60.0,
        "Latitude(deg)": -31.690769556195793,
        "Longitude(deg)": -4.500999412407737,
        "Mean Anomaly(deg)": -142.93195698176717,
        "RAAN(deg)": 254.99705965602183,
        "Satellite Name": "Test1 1135",
        "Satellite Number": 1135,
        "Semi-Major Axis(m)": 6980739.136638005,
        "Time(s)": 70
    },
    {
        "Altitude(m)": 614088.0050438573,
        "Argument of Periapsis(deg)": 0.0008335156730637124,
        "Eccentricity": 0.0,
        "Inclination(deg)": 60.0,
        "Latitude(deg)": -32.19301242686733,
        "Longitude(deg)": -4.114263456328733,
        "Mean Anomaly(deg)": -142.31185083630533,
        "RAAN(deg)": 254.9966396068821,
        "Satellite Name": "Test1 1135",
        "Satellite Number": 1135,
        "Semi-Major Axis(m)": 6980739.136638005,
        "Time(s)": 80
    },
    {
        "Altitude(m)": 614286.9675316571,
        "Argument of Periapsis(deg)": 0.0009377051321966765,
        "Eccentricity": 0.0,
        "Inclination(deg)": 60.0,
        "Latitude(deg)": -32.6937334530425,
        "Longitude(deg)": -3.7228244930843477,
        "Mean Anomaly(deg)": -141.69174469084356,
        "RAAN(deg)": 254.99621955774234,
        "Satellite Name": "Test1 1135",
        "Satellite Number": 1135,
        "Semi-Major Axis(m)": 6980739.136638005,
        "Time(s)": 90
    },
    {
        "Altitude(m)": 614486.175299475,
        "Argument of Periapsis(deg)": 0.0010418945913296407,
        "Eccentricity": 0.0,
        "Inclination(deg)": 60.0,
        "Latitude(deg)": -33.19288777328327,
        "Longitude(deg)": -3.3265517762576704,
        "Mean Anomaly(deg)": -141.07163854538172,
        "RAAN(deg)": 254.99579950860257,
        "Satellite Name": "Test1 1135",
        "Satellite Number": 1135,
        "Semi-Major Axis(m)": 6980739.136638005,
        "Time(s)": 100
    },
    {
        "Altitude(m)": 614685.5541800644,
        "Argument of Periapsis(deg)": 0.0011460840504626045,
        "Eccentricity": 0.0,
        "Inclination(deg)": 60.0,
        "Latitude(deg)": -33.69042923632965,
        "Longitude(deg)": -2.925312120888887,
        "Mean Anomaly(deg)": -140.4515323999199,
        "RAAN(deg)": 254.99537945946287,
        "Satellite Name": "Test1 1135",
        "Satellite Number": 1135,
        "Semi-Major Axis(m)": 6980739.136638005,
        "Time(s)": 110
    },
    {
        "Altitude(m)": 614885.0297825239,
        "Argument of Periapsis(deg)": 0.0012502735095955685,
        "Eccentricity": 0.0,
        "Inclination(deg)": 60.0,
        "Latitude(deg)": -34.18631035241106,
        "Longitude(deg)": -2.518969336414426,
        "Mean Anomaly(deg)": -139.83142625445805,
        "RAAN(deg)": 254.99495941032313,
        "Satellite Name": "Test1 1135",
        "Satellite Number": 1135,
        "Semi-Major Axis(m)": 6980739.136638005,
        "Time(s)": 120
    },
    {
        "Altitude(m)": 615084.527525119,
        "Argument of Periapsis(deg)": 0.0013544629687285324,
        "Eccentricity": 0.0,
        "Inclination(deg)": 60.0,
        "Latitude(deg)": -34.680482242960835,
        "Longitude(deg)": -2.107383661179361,
        "Mean Anomaly(deg)": -139.2113201089962,
        "RAAN(deg)": 254.99453936118337,
        "Satellite Name": "Test1 1135",
        "Satellite Number": 1135,
        "Semi-Major Axis(m)": 6980739.136638005,
        "Time(s)": 130
    },
    {
        "Altitude(m)": 615283.9726681588,
        "Argument of Periapsis(deg)": 0.0014586524278614966,
        "Eccentricity": 0.0,
        "Inclination(deg)": 60.0,
        "Latitude(deg)": -35.172894588709084,
        "Longitude(deg)": -1.690412711758183,
        "Mean Anomaly(deg)": -138.59121396353436,
        "RAAN(deg)": 254.9941193120436,
        "Satellite Name": "Test1 1135",
        "Satellite Number": 1135,
        "Semi-Major Axis(m)": 6980739.136638005,
        "Time(s)": 140
    },
    {
        "Altitude(m)": 615483.2903469441,
        "Argument of Periapsis(deg)": 0.0015628418869944607,
        "Eccentricity": 0.0,
        "Inclination(deg)": 60.0,
        "Latitude(deg)": -35.66349557612251,
        "Longitude(deg)": -1.2679109217396214,
        "Mean Anomaly(deg)": -137.97110781807254,
        "RAAN(deg)": 254.9936992629039,
        "Satellite Name": "Test1 1135",
        "Satellite Number": 1135,
        "Semi-Major Axis(m)": 6980739.136638005,
        "Time(s)": 150
    },
    {
        "Altitude(m)": 615682.4056047165,
        "Argument of Periapsis(deg)": 0.0016670313461274247,
        "Eccentricity": 0.0,
        "Inclination(deg)": 60.0,
        "Latitude(deg)": -36.1522318421698,
        "Longitude(deg)": -0.8397289832969671,
        "Mean Anomaly(deg)": -137.3510016726107,
        "RAAN(deg)": 254.99327921376417,
        "Satellite Name": "Test1 1135",
        "Satellite Number": 1135,
        "Semi-Major Axis(m)": 6980739.136638005,
        "Time(s)": 160
    },
    {
        "Altitude(m)": 615881.2434256716,
        "Argument of Periapsis(deg)": 0.0017712208052603888,
        "Eccentricity": 0.0,
        "Inclination(deg)": 60.0,
        "Latitude(deg)": -36.63904841739804,
        "Longitude(deg)": -0.40571480490617173,
        "Mean Anomaly(deg)": -136.73089552714885,
        "RAAN(deg)": 254.9928591646244,
        "Satellite Name": "Test1 1135",
        "Satellite Number": 1135,
        "Semi-Major Axis(m)": 6980739.136638005,
        "Time(s)": 170
    },
    {
        "Altitude(m)": 616079.7287679693,
        "Argument of Periapsis(deg)": 0.001875410264393353,
        "Eccentricity": 0.0,
        "Inclination(deg)": 60.0,
        "Latitude(deg)": -37.12388866730136,
        "Longitude(deg)": 0.03428703999211942,
        "Mean Anomaly(deg)": -136.110789381687,
        "RAAN(deg)": 254.99243911548464,
        "Satellite Name": "Test1 1135",
        "Satellite Number": 1135,
        "Semi-Major Axis(m)": 6980739.136638005,
        "Time(s)": 180
    },
    {
        "Altitude(m)": 616277.7865966999,
        "Argument of Periapsis(deg)": 0.0019795997235263173,
        "Eccentricity": 0.0,
        "Inclination(deg)": 60.0,
        "Latitude(deg)": -37.606694231977144,
        "Longitude(deg)": 0.48043585991984455,
        "Mean Anomaly(deg)": -135.49068323622518,
        "RAAN(deg)": 254.99201906634494,
        "Satellite Name": "Test1 1135",
        "Satellite Number": 1135,
        "Semi-Major Axis(m)": 6980739.136638005,
        "Time(s)": 190
    }
]